Total gap duration: 10:01:18.418632
STARLINK-4530
1 53393U 22097F   24101.14091594  .00001578  00000+0  11724-3 0  9992
2 53393  53.2214  20.0323 0001396  92.0373 268.0779 15.08833251 92562
Total gap duration: 9:58:22.900411
STARLINK-1394
1 45679U 20035Y   24101.27566757  .00000073  00000+0  23803-4 0  9993
2 45679  53.0544 311.9200 0001612  88.0034 272.1140 15.06397724213202
Total gap duration: 10:01:06.245131
STARLINK-2104
1 47384U 21005AM  24101.54523968 -.00000459  00000+0 -11955-4 0  9998
2 47384  53.0600 285.9501 0001429  90.6425 269.4728 15.06394003178841
Total gap duration: 10:02:11.855638
STARLINK-3183
1 51134U 22005AG  24101.19844906  .00006589  00000+0  43153-3 0  9998
2 51134  53.2157 184.7711 0001855  81.8315 278.2887 15.08851683124546
Total gap duration: 9:59:21.171712
STARLINK-5434
1 54849U 22177AF  24100.81893863  .00000143  00000+0  25618-4 0  9995
2 54849  43.0044 330.2231 0001120 268.3795  91.6919 15.02540701 71834
Total gap duration: 9:54:53.796057
STARLINK-5240
1 54187U 22141AG  24100.74713177  .00000204  00000+0  30941-4 0  9995
2 54187  53.2191 261.6222 0001847 103.0719 257.0479 15.08834008 80346
Total gap duration: 9:58:15.902020
STARLINK-31096
1 58592U 23200D   24101.41974221  .00000126  00000+0  24427-4 0  9995
2 58592  43.0023   5.5428 0000942 264.7857  95.2877 15.02533264 18571
Total gap duration: 9:53:13.486642
STARLINK-30471
1 57932U 23147V   24101.21587815  .00000632  00000+0  61871-4 0  9995
2 57932  43.0015 160.9896 0001070 271.6470  88.4250 15.02538621 31504
Total gap duration: 9:57:06.050661
STARLINK-6046
1 56792U 23078AB  24100.96089125  .00000268  00000+0  30221-4 0  9993
2 56792  69.9987 306.3516 0002985 269.8540  90.2277 14.98329027 48274
Total gap duration: 10:01:18.418632
STARLINK-6206
1 56876U 23083A   24101.52483093  .00000752  00000+0  70771-4 0  9999
2 56876  43.0032 275.8138 0001391 271.6356  88.4327 15.02536451 45849
Total gap duration: 10:00:20.184467
